*******************************************************************************
Ephemeris / WWW_USER Mon Mar 26 20:35:29 2018 Pasadena, USA      / Horizons    
*******************************************************************************
Target body name: Pluto (999)                     {source: plu055l_merged}
Center body name: Pluto Barycenter (9)            {source: plu055l_merged}
Center-site name: BODY CENTER
*******************************************************************************
Start time      : A.D. 2000-Jan-01 00:00:00.0000 TDB
Stop  time      : A.D. 2005-Jan-01 00:00:00.0000 TDB
Step-size       : 7200 minutes
*******************************************************************************
Center geodetic : 0.00000000,0.00000000,0.0000000 {E-lon(deg),Lat(deg),Alt(km)}
Center cylindric: 0.00000000,0.00000000,0.0000000 {E-lon(deg),Dxy(km),Dz(km)}
Center radii    : (undefined)                                                  
Output units    : AU-D                                                         
Output type     : GEOMETRIC cartesian states
Output format   : 2 (position and velocity)
Reference frame : ICRF/J2000.0                                                 
Coordinate systm: Ecliptic and Mean Equinox of Reference Epoch                 
*******************************************************************************
JDTDB
   X     Y     Z
   VX    VY    VZ
*******************************************************************************
$$SOE
2452174.500000000 = A.D. 2001-Sep-22 00:00:00.0000 TDB 
  -7.855561681580639E-06 -1.115034029518609E-05 -4.177858771507177E-06
  -6.831090691571120E-06  2.214392646402127E-07  1.225988123398297E-05
2452179.500000000 = A.D. 2001-Sep-27 00:00:00.0000 TDB 
   5.189822056779012E-06 -2.501544399245731E-06 -1.305336368608978E-05
  -8.963321533905101E-06 -1.069208928550255E-05 -1.512929802952452E-06
2452184.500000000 = A.D. 2001-Oct-02 00:00:00.0000 TDB 
   9.982767824033021E-06  1.012693200772901E-05 -1.169368695527090E-06
   3.158680479177372E-06 -4.599375977892099E-06 -1.287530222407879E-05
2452189.500000000 = A.D. 2001-Oct-07 00:00:00.0000 TDB 
  -1.098183662403050E-06  6.651775636521285E-06  1.257329987858061E-05
   1.025773785861069E-05  8.807725930848455E-06 -3.762609948115332E-06
2452194.500000000 = A.D. 2001-Oct-12 00:00:00.0000 TDB 
  -1.043161891346952E-05 -7.402295032283720E-06  6.317842663611735E-06
   1.041160094868552E-06  8.208105491351643E-06  1.133889043851704E-05
2452199.500000000 = A.D. 2001-Oct-17 00:00:00.0000 TDB 
  -3.168363416376556E-06 -9.678343444214064E-06 -9.987713417438761E-06
  -9.832768394035140E-06 -5.450287118037806E-06  8.402240375813558E-06
2452204.500000000 = A.D. 2001-Oct-22 00:00:00.0000 TDB 
   9.136954187558480E-06  3.444107249092575E-06 -1.040450305869147E-05
  -5.064174597457989E-06 -1.043580522837273E-05 -7.897565999470710E-06
2452209.500000000 = A.D. 2001-Oct-27 00:00:00.0000 TDB 
   6.914271292264105E-06  1.109230545547058E-05  5.725282659894698E-06
   7.756239066433113E-06  1.174305704547532E-06 -1.163554163569609E-05
2452214.500000000 = A.D. 2001-Nov-01 00:00:00.0000 TDB 
  -6.301160978468956E-06  1.102894186387821E-06  1.274885884728122E-05
   8.243144605581228E-06  1.091885554177791E-05  3.131432841299617E-06
2452219.500000000 = A.D. 2001-Nov-06 00:00:00.0000 TDB 
  -9.490798886166562E-06 -1.063936268842400E-05 -5.091534572728434E-07
  -4.384454750122031E-06  3.294796748156750E-06  1.292098726225354E-05
2452224.500000000 = A.D. 2001-Nov-11 00:00:00.0000 TDB 
   2.420001355109699E-06 -5.454748506122417E-06 -1.295866695702803E-05
  -1.003636566374270E-05 -9.570323700476740E-06  2.154755861393829E-06
2452229.500000000 = A.D. 2001-Nov-16 00:00:00.0000 TDB 
   1.048248827034582E-05  8.406750185806037E-06 -4.796843079189705E-06
   2.744781946069294E-07 -7.211260262295752E-06 -1.203432815796486E-05
2452234.500000000 = A.D. 2001-Nov-21 00:00:00.0000 TDB 
   1.876101435357200E-06  8.900743430518809E-06  1.099373509865920E-05
   1.014820461324814E-05  6.615136192766877E-06 -7.085328602159341E-06
2452239.500000000 = A.D. 2001-Nov-26 00:00:00.0000 TDB 
  -9.712556377821667E-06 -4.759163202441542E-06  9.300250348716378E-06
   3.882508890856628E-06  9.923348197165101E-06  9.135734915131328E-06
2452244.500000000 = A.D. 2001-Dec-01 00:00:00.0000 TDB 
  -5.847700882911183E-06 -1.084519180727872E-05 -7.188123666629721E-06
  -8.561373703659814E-06 -2.555811274937300E-06  1.082486972312759E-05
2452249.500000000 = A.D. 2001-Dec-06 00:00:00.0000 TDB 
   7.322557673648469E-06  3.242420904648518E-07 -1.224197681554759E-05
  -7.384324554237424E-06 -1.096681255492661E-05 -4.705006915272822E-06
2452254.500000000 = A.D. 2001-Dec-11 00:00:00.0000 TDB 
   8.849757261763938E-06  1.098021922432694E-05  2.172583417300729E-06
   5.534694815302630E-06 -1.936355105677846E-06 -1.274870684893833E-05
2452259.500000000 = A.D. 2001-Dec-16 00:00:00.0000 TDB 
  -3.694223489737125E-06  4.176198979319444E-06  1.313053763862204E-05
   9.652890557472903E-06  1.017441636241754E-05 -5.183919587914348E-07
2452264.500000000 = A.D. 2001-Dec-21 00:00:00.0000 TDB 
  -1.036058362607967E-05 -9.269748258030149E-06  3.201487400669658E-06
  -1.584325661520899E-06  6.102840771380259E-06  1.254086782214013E-05
2452269.500000000 = A.D. 2001-Dec-26 00:00:00.0000 TDB 
  -5.433185263519880E-07 -7.967656616047670E-06 -1.182121077817598E-05
  -1.030136966671594E-05 -7.677964299000584E-06  5.649085358131304E-06
2452274.500000000 = A.D. 2001-Dec-31 00:00:00.0000 TDB 
   1.013906978074316E-05  6.009697216347153E-06 -8.039632004365602E-06
  -2.632104862506545E-06 -9.243005711267553E-06 -1.022467604128989E-05
2452279.500000000 = A.D. 2002-Jan-05 00:00:00.0000 TDB 
   4.699020979079142E-06  1.043227445310903E-05  8.528277126506779E-06
   9.221589195735663E-06  3.890237521467530E-06 -9.837077353871593E-06
2452284.500000000 = A.D. 2002-Jan-10 00:00:00.0000 TDB 
  -8.211625217121288E-06 -1.733185261962214E-06  1.153357973670330E-05
   6.410960188502367E-06  1.083925428406627E-05  6.196959070834365E-06
2452289.500000000 = A.D. 2002-Jan-15 00:00:00.0000 TDB 
  -8.056272113298659E-06 -1.113865436552143E-05 -3.809337937548840E-06
  -6.600169356888178E-06  5.448155426020891E-07  1.237567431810747E-05
2452294.500000000 = A.D. 2002-Jan-20 00:00:00.0000 TDB 
   4.918427062092557E-06 -2.821972745378149E-06 -1.309388748164044E-05
  -9.110232017790596E-06 -1.061495080568924E-05 -1.133287974602751E-06
2452299.500000000 = A.D. 2002-Jan-25 00:00:00.0000 TDB 
   1.007230840302927E-05  9.983960925637913E-06 -1.554529830509422E-06
   2.867708146210176E-06 -4.890994375196518E-06 -1.283555055388440E-05
2452304.500000000 = A.D. 2002-Jan-30 00:00:00.0000 TDB 
  -7.902359599446600E-07  6.913467291739118E-06  1.245599616811298E-05
   1.028531953532011E-05  8.611017276676362E-06 -4.125913245180331E-06
2452309.500000000 = A.D. 2002-Feb-04 00:00:00.0000 TDB 
  -1.039513960547487E-05 -7.152084092589710E-06  6.655233692871620E-06
   1.343658650179715E-06  8.419384478991564E-06  1.115030242394103E-05
2452314.500000000 = A.D. 2002-Feb-09 00:00:00.0000 TDB 
  -3.461379401866889E-06 -9.837600091479242E-06 -9.732286813106488E-06
  -9.736674453244913E-06 -5.167165685308241E-06  8.688491623828685E-06
2452319.500000000 = A.D. 2002-Feb-14 00:00:00.0000 TDB 
   8.980635544510218E-06  3.128803919287761E-06 -1.063736652036210E-05
  -5.327215601859062E-06 -1.053119039776162E-05 -7.592014653656051E-06
2452324.500000000 = A.D. 2002-Feb-19 00:00:00.0000 TDB 
   7.143158705223792E-06  1.112233149826408E-05  5.374520629085546E-06
   7.552375199774830E-06  8.522245359435519E-07 -1.179641212190515E-05
2452329.500000000 = A.D. 2002-Feb-24 00:00:00.0000 TDB 
  -6.051078121975354E-06  1.430553308495115E-06  1.283812778154145E-05
   8.422696679668333E-06  1.088221723797650E-05  2.759806608552916E-06
2452334.500000000 = A.D. 2002-Mar-01 00:00:00.0000 TDB 
  -9.617290643238932E-06 -1.053515472479530E-05 -1.217144933676819E-07
  -4.106951308670398E-06  3.602098352136931E-06  1.292983788453168E-05
2452339.500000000 = A.D. 2002-Mar-06 00:00:00.0000 TDB 
   2.118314525213057E-06 -5.739714494731479E-06 -1.288958578439759E-05
  -1.010248592845271E-05 -9.408133185573686E-06  2.529902902777556E-06
2452344.500000000 = A.D. 2002-Mar-11 00:00:00.0000 TDB 
   1.048537987530636E-05  8.185720993906524E-06 -5.156098810719692E-06
  -2.995953267909865E-08 -7.452023195079625E-06 -1.188960920445767E-05
2452349.500000000 = A.D. 2002-Mar-16 00:00:00.0000 TDB 
   2.178700419794018E-06  9.094911137950039E-06  1.077754748619502E-05
   1.008946938668151E-05  6.354282690882945E-06 -7.400998107586603E-06
2452354.500000000 = A.D. 2002-Mar-21 00:00:00.0000 TDB 
  -9.591674972284686E-06 -4.458479000254464E-06  9.571450792036975E-06
   4.163112001403136E-06  1.005740961998247E-05  8.861560225924147E-06
2452359.500000000 = A.D. 2002-Mar-26 00:00:00.0000 TDB 
  -6.100720559951305E-06 -1.091601452483849E-05 -6.860669927093411E-06
  -8.387783122801922E-06 -2.239988835924863E-06  1.102846891242062E-05
2452364.500000000 = A.D. 2002-Mar-31 00:00:00.0000 TDB 
   7.098579448676846E-06 -5.039019553793777E-09 -1.237932914928889E-05
  -7.593818649551204E-06 -1.097174690337485E-05 -4.347823526315267E-06
2452369.500000000 = A.D. 2002-Apr-05 00:00:00.0000 TDB 
   9.011140816610760E-06  1.091601917750104E-05  1.788450068596193E-06
   5.275311019582618E-06 -2.254118760437308E-06 -1.280590334360512E-05
2452374.500000000 = A.D. 2002-Apr-10 00:00:00.0000 TDB 
  -3.404348087394284E-06  4.478765673115928E-06  1.311023707944221E-05
   9.755989362836335E-06  1.004903760646360E-05 -8.989911227106132E-07
2452379.500000000 = A.D. 2002-Apr-15 00:00:00.0000 TDB 
  -1.040376222430323E-05 -9.081910524102340E-06  3.577753565838549E-06
  -1.282523505832325E-06  6.369555839780701E-06  1.244233253558694E-05
